<?xml version="1.0" encoding="UTF-8"?>
<gpx version="1.1" creator="route_google" xmlns="http://www.topografix.com/GPX/1/1">
 <trk><trkseg>
  <trkpt lat="51.05436" lon="3.71967"></trkpt>
  <trkpt lat="51.05441" lon="3.71972"></trkpt>
  <trkpt lat="51.05446" lon="3.71983"></trkpt>
  <trkpt lat="51.05454" lon="3.71989"></trkpt>
  <trkpt lat="51.05465" lon="3.71997"></trkpt>
  <trkpt lat="51.05472" lon="3.72003"></trkpt>
  <trkpt lat="51.05474" lon="3.72006"></trkpt>
  <trkpt lat="51.05484" lon="3.72019"></trkpt>
  <trkpt lat="51.05486" lon="3.72013"></trkpt>
  <trkpt lat="51.05502" lon="3.71966"></trkpt>
  <trkpt lat="51.05486" lon="3.72013"></trkpt>
  <trkpt lat="51.05538" lon="3.72035"></trkpt>
  <trkpt lat="51.05546" lon="3.72038"></trkpt>
  <trkpt lat="51.05553" lon="3.72042"></trkpt>
  <trkpt lat="51.05554" lon="3.72051"></trkpt>
  <trkpt lat="51.05554" lon="3.72062"></trkpt>
  <trkpt lat="51.05552" lon="3.72075"></trkpt>
  <trkpt lat="51.05549" lon="3.72093"></trkpt>
  <trkpt lat="51.05548" lon="3.721"></trkpt>
  <trkpt lat="51.05546" lon="3.7212"></trkpt>
  <trkpt lat="51.05557" lon="3.72142"></trkpt>
  <trkpt lat="51.05583" lon="3.7218"></trkpt>
  <trkpt lat="51.05599" lon="3.7221"></trkpt>
  <trkpt lat="51.05605" lon="3.72222"></trkpt>
  <trkpt lat="51.05582" lon="3.72253"></trkpt>
  <trkpt lat="51.05598" lon="3.7228"></trkpt>
  <trkpt lat="51.05618" lon="3.72303"></trkpt>
  <trkpt lat="51.05619" lon="3.72305"></trkpt>
  <trkpt lat="51.05634" lon="3.72322"></trkpt>
  <trkpt lat="51.05648" lon="3.72336"></trkpt>
 </trkseg></trk>
</gpx>
